[{"OBJECT_NAME":"STARLINK-1140","OBJECT_ID":"2020-006G","EPOCH":"2023-06-04T22:10:49.733472","MEAN_MOTION":15.06396496,"ECCENTRICITY":0.0001139,"INCLINATION":53.0532,"RA_OF_ASC_NODE":135.1392,"ARG_OF_PERICENTER":102.5928,"MEAN_ANOMALY":257.5189,"EPHEMERIS_TYPE":0,"CLASSIFICATION_TYPE":"U","NORAD_CAT_ID":45050,"ELEMENT_SET_NO":999,"REV_AT_EPOCH":18441,"BSTAR":8.6424e-5,"MEAN_MOTION_DOT":1.006e-5,"MEAN_MOTION_DDOT":0},{"OBJECT_NAME":"STARLINK-1148","OBJECT_ID":"2020-006J","EPOCH":"2023-06-04T22:21:27.031104","MEAN_MOTION":15.06388576,"ECCENTRICITY":0.000112,"INCLINATION":53.0533,"RA_OF_ASC_NODE":135.1101,"ARG_OF_PERICENTER":88.9586,"MEAN_ANOMALY":271.1531,"EPHEMERIS_TYPE":0,"CLASSIFICATION_TYPE":"U","NORAD_CAT_ID":45052,"ELEMENT_SET_NO":999,"REV_AT_EPOCH":18441,"BSTAR":6.2687e-5,"MEAN_MOTION_DOT":6.52e-6,"MEAN_MOTION_DDOT":0},{"OBJECT_NAME":"STARLINK-1155","OBJECT_ID":"2020-006K","EPOCH":"2023-06-04T15:14:49.683264","MEAN_MOTION":15.32162884,"ECCENTRICITY":0.0002747,"INCLINATION":52.9891,"RA_OF_ASC_NODE":88.8808,"ARG_OF_PERICENTER":296.6225,"MEAN_ANOMALY":63.4493,"EPHEMERIS_TYPE":0,"CLASSIFICATION_TYPE":"U","NORAD_CAT_ID":45053,"ELEMENT_SET_NO":999,"REV_AT_EPOCH":18498,"BSTAR":0.00035018,"MEAN_MOTION_DOT":0.00010675,"MEAN_MOTION_DDOT":0},{"OBJECT_NAME":"STARLINK-1156","OBJECT_ID":"2020-006L","EPOCH":"2023-06-04T22:16:08.273856","MEAN_MOTION":15.06390918,"ECCENTRICITY":0.0001278,"INCLINATION":53.0539,"RA_OF_ASC_NODE":135.1221,"ARG_OF_PERICENTER":81.3954,"MEAN_ANOMALY":278.718,"EPHEMERIS_TYPE":0,"CLASSIFICATION_TYPE":"U","NORAD_CAT_ID":45054,"ELEMENT_SET_NO":999,"REV_AT_EPOCH":18441,"BSTAR":9.1708e-5,"MEAN_MOTION_DOT":1.085e-5,"MEAN_MOTION_DDOT":0},{"OBJECT_NAME":"STARLINK-1159","OBJECT_ID":"2020-006P","EPOCH":"2023-06-04T05:06:25.630560","MEAN_MOTION":15.06401698,"ECCENTRICITY":0.0001139,"INCLINATION":53.0537,"RA_OF_ASC_NODE":138.3356,"ARG_OF_PERICENTER":92.5958,"MEAN_ANOMALY":267.5161,"EPHEMERIS_TYPE":0,"CLASSIFICATION_TYPE":"U","NORAD_CAT_ID":45057,"ELEMENT_SET_NO":999,"REV_AT_EPOCH":18431,"BSTAR":2.4846e-5,"MEAN_MOTION_DOT":8.9e-7,"MEAN_MOTION_DDOT":0},{"OBJECT_NAME":"STARLINK-1162","OBJECT_ID":"2020-006Q","EPOCH":"2023-06-04T06:31:21.229536","MEAN_MOTION":15.06404542,"ECCENTRICITY":0.000112,"INCLINATION":53.0537,"RA_OF_ASC_NODE":138.0687,"ARG_OF_PERICENTER":84.6831,"MEAN_ANOMALY":275.4286,"EPHEMERIS_TYPE":0,"CLASSIFICATION_TYPE":"U","NORAD_CAT_ID":45058,"ELEMENT_SET_NO":999,"REV_AT_EPOCH":18432,"BSTAR":5.3451e-5,"MEAN_MOTION_DOT":5.15e-6,"MEAN_MOTION_DDOT":0},{"OBJECT_NAME":"STARLINK-1165","OBJECT_ID":"2020-006R","EPOCH":"2023-06-04T08:38:46.056192","MEAN_MOTION":15.0639338,"ECCENTRICITY":9.34e-5,"INCLINATION":53.0542,"RA_OF_ASC_NODE":137.6732,"ARG_OF_PERICENTER":83.8384,"MEAN_ANOMALY":276.2711,"EPHEMERIS_TYPE":0,"CLASSIFICATION_TYPE":"U","NORAD_CAT_ID":45059,"ELEMENT_SET_NO":999,"REV_AT_EPOCH":18433,"BSTAR":2.7011e-5,"MEAN_MOTION_DOT":1.21e-6,"MEAN_MOTION_DDOT":0},{"OBJECT_NAME":"STARLINK-1166","OBJECT_ID":"2020-006S","EPOCH":"2023-06-04T08:33:25.910496","MEAN_MOTION":15.06414991,"ECCENTRICITY":0.0001213,"INCLINATION":53.0526,"RA_OF_ASC_NODE":137.6893,"ARG_OF_PERICENTER":73.0381,"MEAN_ANOMALY":287.0741,"EPHEMERIS_TYPE":0,"CLASSIFICATION_TYPE":"U","NORAD_CAT_ID":45060,"ELEMENT_SET_NO":999,"REV_AT_EPOCH":18433,"BSTAR":0.0003376,"MEAN_MOTION_DOT":4.753e-5,"MEAN_MOTION_DDOT":0},{"OBJECT_NAME":"STARLINK-1169","OBJECT_ID":"2020-006T","EPOCH":"2023-06-04T18:17:17.246688","MEAN_MOTION":15.06393675,"ECCENTRICITY":0.0001103,"INCLINATION":53.0538,"RA_OF_ASC_NODE":135.8707,"ARG_OF_PERICENTER":93.9532,"MEAN_ANOMALY":266.1583,"EPHEMERIS_TYPE":0,"CLASSIFICATION_TYPE":"U","NORAD_CAT_ID":45061,"ELEMENT_SET_NO":999,"REV_AT_EPOCH":18439,"BSTAR":2.9244e-5,"MEAN_MOTION_DOT":1.54e-6,"MEAN_MOTION_DDOT":0},{"OBJECT_NAME":"STARLINK-1171","OBJECT_ID":"2020-006U","EPOCH":"2023-06-04T17:56:03.358176","MEAN_MOTION":15.06396955,"ECCENTRICITY":0.0001216,"INCLINATION":53.0538,"RA_OF_ASC_NODE":135.9342,"ARG_OF_PERICENTER":86.1418,"MEAN_ANOMALY":273.971,"EPHEMERIS_TYPE":0,"CLASSIFICATION_TYPE":"U","NORAD_CAT_ID":45062,"ELEMENT_SET_NO":999,"REV_AT_EPOCH":18439,"BSTAR":9.3252e-5,"MEAN_MOTION_DOT":1.108e-5,"MEAN_MOTION_DDOT":0},{"OBJECT_NAME":"STARLINK-1133","OBJECT_ID":"2020-006W","EPOCH":"2023-06-04T21:25:43.144608","MEAN_MOTION":15.06385403,"ECCENTRICITY":0.0001295,"INCLINATION":53.0534,"RA_OF_ASC_NODE":115.2782,"ARG_OF_PERICENTER":104.8235,"MEAN_ANOMALY":255.2898,"EPHEMERIS_TYPE":0,"CLASSIFICATION_TYPE":"U","NORAD_CAT_ID":45064,"ELEMENT_SET_NO":999,"REV_AT_EPOCH":18469,"BSTAR":8.4915e-5,"MEAN_MOTION_DOT":9.83e-6,"MEAN_MOTION_DDOT":0},{"OBJECT_NAME":"STARLINK-1139","OBJECT_ID":"2020-006X","EPOCH":"2023-06-04T07:13:15.237120","MEAN_MOTION":15.09110019,"ECCENTRICITY":0.000445,"INCLINATION":53.0524,"RA_OF_ASC_NODE":117.2548,"ARG_OF_PERICENTER":51.3092,"MEAN_ANOMALY":308.8296,"EPHEMERIS_TYPE":0,"CLASSIFICATION_TYPE":"U","NORAD_CAT_ID":45065,"ELEMENT_SET_NO":999,"REV_AT_EPOCH":18461,"BSTAR":0.00086275,"MEAN_MOTION_DOT":0.00013573,"MEAN_MOTION_DDOT":0},{"OBJECT_NAME":"STARLINK-1145","OBJECT_ID":"2020-006Y","EPOCH":"2023-06-04T14:31:42.255552","MEAN_MOTION":15.06401348,"ECCENTRICITY":0.0001068,"INCLINATION":53.0533,"RA_OF_ASC_NODE":116.5695,"ARG_OF_PERICENTER":87.6158,"MEAN_ANOMALY":272.4953,"EPHEMERIS_TYPE":0,"CLASSIFICATION_TYPE":"U","NORAD_CAT_ID":45066,"ELEMENT_SET_NO":999,"REV_AT_EPOCH":18464,"BSTAR":2.3431e-5,"MEAN_MOTION_DOT":6.8e-7,"MEAN_MOTION_DDOT":0},{"OBJECT_NAME":"STARLINK-1150","OBJECT_ID":"2020-006Z","EPOCH":"2023-06-04T21:15:06.285024","MEAN_MOTION":15.06384676,"ECCENTRICITY":0.0001178,"INCLINATION":53.0541,"RA_OF_ASC_NODE":115.3122,"ARG_OF_PERICENTER":103.1807,"MEAN_ANOMALY":256.9313,"EPHEMERIS_TYPE":0,"CLASSIFICATION_TYPE":"U","NORAD_CAT_ID":45067,"ELEMENT_SET_NO":999,"REV_AT_EPOCH":18469,"BSTAR":0.00010707,"MEAN_MOTION_DOT":1.313e-5,"MEAN_MOTION_DDOT":0},{"OBJECT_NAME":"STARLINK-1161","OBJECT_ID":"2020-006AA","EPOCH":"2023-06-04T22:12:06.053184","MEAN_MOTION":15.06394402,"ECCENTRICITY":9.84e-5,"INCLINATION":53.0544,"RA_OF_ASC_NODE":115,"ARG_OF_PERICENTER":92.6345,"MEAN_ANOMALY":267.4756,"EPHEMERIS_TYPE":0,"CLASSIFICATION_TYPE":"U","NORAD_CAT_ID":45068,"ELEMENT_SET_NO":999,"REV_AT_EPOCH":18469,"BSTAR":3.0972e-5,"MEAN_MOTION_DOT":1.8e-6,"MEAN_MOTION_DDOT":0},{"OBJECT_NAME":"STARLINK-1167","OBJECT_ID":"2020-006AD","EPOCH":"2023-06-04T22:02:52.446912","MEAN_MOTION":15.06386945,"ECCENTRICITY":0.000132,"INCLINATION":53.0565,"RA_OF_ASC_NODE":115.1729,"ARG_OF_PERICENTER":119.5015,"MEAN_ANOMALY":240.6106,"EPHEMERIS_TYPE":0,"CLASSIFICATION_TYPE":"U","NORAD_CAT_ID":45071,"ELEMENT_SET_NO":999,"REV_AT_EPOCH":18469,"BSTAR":6.3295e-5,"MEAN_MOTION_DOT":6.61e-6,"MEAN_MOTION_DDOT":0},{"OBJECT_NAME":"STARLINK-1168","OBJECT_ID":"2020-006AE","EPOCH":"2023-06-04T14:10:28.673760","MEAN_MOTION":15.06401637,"ECCENTRICITY":0.0001174,"INCLINATION":53.054,"RA_OF_ASC_NODE":116.6354,"ARG_OF_PERICENTER":95.9231,"MEAN_ANOMALY":264.1891,"EPHEMERIS_TYPE":0,"CLASSIFICATION_TYPE":"U","NORAD_CAT_ID":45072,"ELEMENT_SET_NO":999,"REV_AT_EPOCH":18464,"BSTAR":1.5365e-5,"MEAN_MOTION_DOT":-5.2e-7,"MEAN_MOTION_DDOT":0}]
