STARLINK-1140           
1 45050U 20006G   23155.92418673  .00001006  00000+0  86424-4 0  9992
2 45050  53.0532 135.1392 0001139 102.5928 257.5189 15.06396496184413
STARLINK-1148           
1 45052U 20006J   23155.93156286  .00000652  00000+0  62687-4 0  9995
2 45052  53.0533 135.1101 0001120  88.9586 271.1531 15.06388576184414
STARLINK-1155           
1 45053U 20006K   23155.63529726  .00010675  00000+0  35018-3 0  9999
2 45053  52.9891  88.8808 0002747 296.6225  63.4493 15.32162884184984
STARLINK-1156           
1 45054U 20006L   23155.92787354  .00001085  00000+0  91708-4 0  9999
2 45054  53.0539 135.1221 0001278  81.3954 278.7180 15.06390918184411
STARLINK-1159           
1 45057U 20006P   23155.21279665  .00000089  00000+0  24846-4 0  9997
2 45057  53.0537 138.3356 0001139  92.5958 267.5161 15.06401698184312
STARLINK-1162           
1 45058U 20006Q   23155.27177349  .00000515  00000+0  53451-4 0  9998
2 45058  53.0537 138.0687 0001120  84.6831 275.4286 15.06404542184327
STARLINK-1165           
1 45059U 20006R   23155.36025528  .00000121  00000+0  27011-4 0  9996
2 45059  53.0542 137.6732 0000934  83.8384 276.2711 15.06393380184336
STARLINK-1166           
1 45060U 20006S   23155.35654989  .00004753  00000+0  33760-3 0  9998
2 45060  53.0526 137.6893 0001213  73.0381 287.0741 15.06414991184332
STARLINK-1169           
1 45061U 20006T   23155.76200517  .00000154  00000+0  29244-4 0  9992
2 45061  53.0538 135.8707 0001103  93.9532 266.1583 15.06393675184390
STARLINK-1171           
1 45062U 20006U   23155.74726109  .00001108  00000+0  93252-4 0  9991
2 45062  53.0538 135.9342 0001216  86.1418 273.9710 15.06396955184391
STARLINK-1133           
1 45064U 20006W   23155.89286047  .00000983  00000+0  84915-4 0  9997
2 45064  53.0534 115.2782 0001295 104.8235 255.2898 15.06385403184699
STARLINK-1139           
1 45065U 20006X   23155.30087080  .00013573  00000+0  86275-3 0  9999
2 45065  53.0524 117.2548 0004450  51.3092 308.8296 15.09110019184615
STARLINK-1145           
1 45066U 20006Y   23155.60535018  .00000068  00000+0  23431-4 0  9993
2 45066  53.0533 116.5695 0001068  87.6158 272.4953 15.06401348184642
STARLINK-1150           
1 45067U 20006Z   23155.88548941  .00001313  00000+0  10707-3 0  9998
2 45067  53.0541 115.3122 0001178 103.1807 256.9313 15.06384676184697
STARLINK-1161           
1 45068U 20006AA  23155.92507006  .00000180  00000+0  30972-4 0  9999
2 45068  53.0544 115.0000 0000984  92.6345 267.4756 15.06394402184692
STARLINK-1167           
1 45071U 20006AD  23155.91866258  .00000661  00000+0  63295-4 0  9997
2 45071  53.0565 115.1729 0001320 119.5015 240.6106 15.06386945184691
STARLINK-1168           
1 45072U 20006AE  23155.59060965 -.00000052  00000+0  15365-4 0  9993
2 45072  53.0540 116.6354 0001174  95.9231 264.1891 15.06401637184642
